NORAD_CAT_ID,OBJECT_NAME,OBJECT_TYPE,EPOCH,MEAN_MOTION,ECCENTRICITY,INCLINATION,RA_OF_ASC_NODE,ARG_OF_PERICENTER,MEAN_ANOMALY,BSTAR,MEAN_MOTION_DOT,MEAN_MOTION_DDOT,TLE_LINE0,TLE_LINE1,TLE_LINE2,SEMIMAJOR_AXIS,PERIOD,APOGEE,PERIGEE,DECAYED
52305.0,STARLINK-3724,PAYLOAD,2022-05-25 22:00:00,15.73253578,0.000392,53.2153,205.3787,1.1579,240.9694,-0.00042122,-0.00059487,0.0,0 STARLINK-3724,1 52305U 22041AW  22145.91667824 -.00059487  00000-0 -42122-3 0  9990,2 52305  53.2153 205.3787 0003920   1.1579 240.9694 15.73253578  6629,6727.7419999999975,91.53,352.245,346.97,0.0
52305.0,STARLINK-3724,PAYLOAD,2022-05-26 06:00:00,15.73256199,0.0003879,53.2155,203.7292,358.8376,332.2347,-0.00029202,-0.00041523,0.0,0 STARLINK-3724,1 52305U 22041AW  22146.25001157 -.00041523  00000-0 -29202-3 0  9995,2 52305  53.2155 203.7292 0003879 358.8376 332.2347 15.73256199  6671,6727.735,91.53,352.21,346.99,0.0
52305.0,STARLINK-3724,PAYLOAD,2022-05-26 14:00:01,15.73184569,0.0004146,53.2155,202.0816,356.9387,63.1089,5.6092e-05,7.253e-05,0.0,0 STARLINK-3724,1 52305U 22041AW  22146.58334491  .00007253  00000-0  56092-4 0  9999,2 52305  53.2155 202.0816 0004146 356.9387  63.1089 15.73184569  1303,6727.939,91.534,352.594,347.015,0.0
52305.0,STARLINK-3724,PAYLOAD,2022-05-26 22:00:00,15.731533,0.0003992,53.2157,200.4301,355.2809,153.7005,0.00043521,0.00060799,0.0,0 STARLINK-3724,1 52305U 22041AW  22146.91667824  .00060799  00000-0  43521-3 0  9991,2 52305  53.2157 200.4301 0003992 355.2809 153.7005 15.73153300  1308,6728.028,91.536,352.579,347.207,0.0
52305.0,STARLINK-3724,PAYLOAD,2022-05-27 14:00:01,15.73135619,0.000431,53.2153,197.1332,1.8185,324.9592,0.00064734,0.00091002,0.0,0 STARLINK-3724,1 52305U 22041AW  22147.58334491  .00091002  00000-0  64734-3 0  9996,2 52305  53.2153 197.1332 0004310   1.8185 324.9592 15.73135619  6880,6728.079000000002,91.537,352.844,347.0440000000001,0.0
52305.0,STARLINK-3724,PAYLOAD,2022-05-27 22:00:01,15.73182709,0.0004034,53.215,195.4817,2.1399,53.608,0.00048888,0.00068524,0.0,0 STARLINK-3724,1 52305U 22041AW  22147.91668981  .00068524  00000-0  48888-3 0  9992,2 52305  53.2150 195.4817 0004034   2.1399  53.6080 15.73182709  1302,6727.944,91.534,352.524,347.095,0.0
52305.0,STARLINK-3724,PAYLOAD,2022-05-28 03:51:48,15.73199984,0.0004404,53.2153,194.2734,1.9145,358.1891,3.8284e-05,4.753e-05,0.0,0 STARLINK-3724,1 52305U 22041AW  22148.16098007  .00004753  00000-0  38284-4 0  9990,2 52305  53.2153 194.2734 0004404   1.9145 358.1891 15.73199984  6971,6727.895,91.533,352.723,346.797,0.0
52305.0,STARLINK-3724,PAYLOAD,2022-05-28 13:00:40,15.73248418,0.0004055,53.2157,192.3871,5.2997,354.8065,0.00016705,0.00022942,0.0,0 STARLINK-3724,1 52305U 22041AW  22148.54213251  .00022942  00000-0  16705-3 0  9995,2 52305  53.2157 192.3871 0004055   5.2997 354.8065 15.73248418  5815,6727.757,91.53,352.35,346.894,0.0
52305.0,STARLINK-3724,PAYLOAD,2022-05-28 14:00:01,15.73241651,0.0004282,53.215,192.1847,0.0712,233.5701,-0.00015969,-0.00023028,0.0,0 STARLINK-3724,1 52305U 22041AW  22148.58334491 -.00023028  00000-0 -15969-3 0  9998,2 52305  53.2150 192.1847 0004282   0.0712 233.5701 15.73241651  7048,6727.776,91.531,352.522,346.761,0.0
52305.0,STARLINK-3724,PAYLOAD,2022-05-28 22:00:00,15.73236765,0.000408,53.2151,190.5329,0.2785,322.3435,-0.00016973,-0.00024426,0.0,0 STARLINK-3724,1 52305U 22041AW  22148.91667824 -.00024426  00000-0 -16973-3 0  9993,2 52305  53.2151 190.5329 0004080   0.2785 322.3435 15.73236765  1308,6727.79,91.531,352.4,346.91,0.0
52305.0,STARLINK-3724,PAYLOAD,2022-05-29 14:00:01,15.73152209,0.000438,53.2146,187.2359,7.0291,133.4178,0.00028916,0.00040088,0.0,0 STARLINK-3724,1 52305U 22041AW  22149.58334491  .00040088  00000-0  28916-3 0  9998,2 52305  53.2146 187.2359 0004380   7.0291 133.4178 15.73152209  7196,6728.031,91.536,352.843,346.95,0.0
52305.0,STARLINK-3724,PAYLOAD,2022-05-29 22:00:00,15.73135988,0.000408,53.2145,185.5843,6.2158,223.141,0.00038797,0.00054049,0.0,0 STARLINK-3724,1 52305U 22041AW  22149.91667824  .00054049  00000-0  38797-3 0  9994,2 52305  53.2145 185.5843 0004080   6.2158 223.1410 15.73135988  1302,6728.078,91.537,352.68800000000016,347.1980000000001,0.0
52305.0,STARLINK-3724,PAYLOAD,2022-05-30 06:00:00,15.7318698,0.000411,53.2145,183.9358,7.1876,311.0314,0.00012166,0.00016481,0.0,0 STARLINK-3724,1 52305U 22041AW  22150.25001157  .00016481  00000-0  12166-3 0  9994,2 52305  53.2145 183.9358 0004110   7.1876 311.0314 15.73186980  7300,6727.932,91.534,352.56199999999984,347.032,0.0
52305.0,STARLINK-3724,PAYLOAD,2022-05-30 14:00:01,15.73182122,0.0004354,53.2142,182.2875,7.0646,40.0672,0.00056432,0.000793,0.0,0 STARLINK-3724,1 52305U 22041AW  22150.58334491  .00079300  00000-0  56432-3 0  9993,2 52305  53.2142 182.2875 0004354   7.0646  40.0672 15.73182122  1301,6727.946,91.534,352.74,346.88199999999995,0.0
52305.0,STARLINK-3724,PAYLOAD,2022-05-30 22:00:00,15.73231226,0.00041,53.2146,180.6358,7.1739,128.9008,2.754e-05,3.248e-05,0.0,0 STARLINK-3724,1 52305U 22041AW  22150.91667824  .00003248  00000-0  27540-4 0  9996,2 52305  53.2146 180.6358 0004100   7.1739 128.9008 15.73231226  1305,6727.806,91.531,352.43,346.913,0.0
52305.0,STARLINK-3724,PAYLOAD,2022-05-31 06:00:02,15.73217954,0.0004242,53.2149,178.9871,7.0363,218.0658,-3.2473e-05,-5.186e-05,0.0,0 STARLINK-3724,1 52305U 22041AW  22151.25002315 -.00005186  00000-0 -32473-4 0  9998,2 52305  53.2149 178.9871 0004242   7.0363 218.0658 15.73217954  1301,6727.844,91.532,352.56300000000016,346.855,0.0
52305.0,STARLINK-3724,PAYLOAD,2022-05-31 14:00:01,15.73213841,0.000444,53.2143,177.3385,6.4574,307.5218,0.00047907,0.00067222,0.0,0 STARLINK-3724,1 52305U 22041AW  22151.58334491  .00067222  00000-0  47907-3 0  9991,2 52305  53.2143 177.3385 0004440   6.4574 307.5218 15.73213841  7511,6727.856,91.532,352.708,346.7340000000001,0.0
52305.0,STARLINK-3724,PAYLOAD,2022-05-31 22:00:00,15.73249774,0.000411,53.2143,175.6868,6.0758,36.8796,-0.00019479,-0.00027944,0.0,0 STARLINK-3724,1 52305U 22041AW  22151.91667824 -.00027944  00000-0 -19479-3 0  9999,2 52305  53.2143 175.6868 0004110   6.0758  36.8796 15.73249774  7564,6727.753000000002,91.53,352.3830000000001,346.853,0.0
52305.0,STARLINK-3724,PAYLOAD,2022-06-01 20:00:01,15.73213582,0.0004192,53.2149,171.1506,1.5711,196.0292,-0.0003328,-0.00047123,0.0,0 STARLINK-3724,1 52305U 22041AW  22152.83334491 -.00047123  00000-0 -33280-3 0  9999,2 52305  53.2149 171.1506 0004192   1.5711 196.0292 15.73213582  1303,6727.856,91.532,352.542,346.901,0.0
52305.0,STARLINK-3724,PAYLOAD,2022-06-02 16:30:33,15.73208381,0.0004465,53.2151,166.9212,8.068,352.0411,-1.3045999999999997e-05,-2.458e-05,0.0,0 STARLINK-3724,1 52305U 22041AW  22153.68789232 -.00002458  00000-0 -13046-4 0  9991,2 52305  53.2151 166.9212 0004465   8.0680 352.0411 15.73208381  7845,6727.871,91.533,352.74,346.732,0.0
52305.0,STARLINK-3724,PAYLOAD,2022-06-03 03:10:54,15.73222089,0.0004115,53.2154,164.7209,12.1032,348.0086,2.3939e-05,2.7399999999999995e-05,0.0,0 STARLINK-3724,1 52305U 22041AW  22154.13258048  .00002740  00000-0  23939-4 0  9992,2 52305  53.2154 164.7209 0004115  12.1032 348.0086 15.73222089  7911,6727.831999999999,91.532,352.466,346.92900000000014,0.0
52305.0,STARLINK-3724,PAYLOAD,2022-06-03 09:16:53,15.73144376,0.0003643,53.215,163.465,8.9746,351.1338,-0.0001138,-0.00016531,0.0,0 STARLINK-3724,1 52305U 22041AW  22154.38672500 -.00016531  00000-0 -11380-3 0  9993,2 52305  53.2150 163.4650 0003643   8.9746 351.1338 15.73144376  7954,6728.054,91.536,352.37,347.468,0.0
52305.0,STARLINK-3724,PAYLOAD,2022-06-04 00:31:38,15.73214211,0.0004314,53.2155,160.3192,13.7158,346.3979,2.158e-05,2.407e-05,0.0,0 STARLINK-3724,1 52305U 22041AW  22155.02197239  .00002407  00000-0  21580-4 0  9995,2 52305  53.2155 160.3192 0004314  13.7158 346.3979 15.73214211  8058,6727.855,91.532,352.622,346.81699999999995,0.0
52305.0,STARLINK-3724,PAYLOAD,2022-06-04 11:13:24,15.71215004,0.0005675,53.2155,158.1255,77.7854,282.38,-0.0034321,-0.00422356,0.0,0 STARLINK-3724,1 52305U 22041AW  22155.46763897 -.00422356  00000-0 -34321-2 0  9998,2 52305  53.2155 158.1255 0005675  77.7854 282.3800 15.71215004  8126,6733.56,91.649,359.247,351.60400000000016,0.0
52305.0,STARLINK-3724,PAYLOAD,2022-06-05 22:00:00,15.70538675,0.0003888,53.2173,150.9734,319.6885,328.7995,-0.0060737,-0.00701911,0.0,0 STARLINK-3724,1 52305U 22041AW  22156.91667824 -.00701911  00000-0 -60737-2 0  9999,2 52305  53.2173 150.9734 0003888 319.6885 328.7995 15.70538675  8350,6735.493,91.688,359.977,354.74,0.0
52305.0,STARLINK-3724,PAYLOAD,2022-06-06 14:00:01,15.69537326,0.0001529,53.2173,147.6963,288.9261,169.799,-0.0066484,-0.00733247,0.0,0 STARLINK-3724,1 52305U 22041AW  22157.58334491 -.00733247  00000-0 -66484-2 0  9996,2 52305  53.2173 147.6963 0001529 288.9261 169.7990 15.69537326  1309,6738.358,91.747,361.253,359.1930000000001,0.0
52305.0,STARLINK-3724,PAYLOAD,2022-06-06 22:00:00,15.69020734,9.73e-05,53.2175,146.0573,28.1777,154.754,-0.0066815,-0.00722071,0.0,0 STARLINK-3724,1 52305U 22041AW  22157.91667824 -.00722071  00000-0 -66815-2 0  9993,2 52305  53.2175 146.0573 0000973  28.1777 154.7540 15.69020734  8503,6739.837,91.777,362.358,361.046,0.0
52305.0,STARLINK-3724,PAYLOAD,2022-06-07 14:00:01,15.67998622,0.000105,53.2173,142.7876,74.4234,275.0755,-0.0069257999999999,-0.00717878,0.0,0 STARLINK-3724,1 52305U 22041AW  22158.58334491 -.00717878  00000-0 -69258-2 0  9991,2 52305  53.2173 142.7876 0001050  74.4234 275.0755 15.67998622  1303,6742.766,91.837,365.339,363.923,0.0
52305.0,STARLINK-3724,PAYLOAD,2022-06-07 22:00:00,15.67487594,0.0001134,53.2174,141.1523,62.8034,9.0614,-0.0070518,-0.00715942,0.0,0 STARLINK-3724,1 52305U 22041AW  22158.91667824 -.00715942  00000-0 -70518-2 0  9998,2 52305  53.2174 141.1523 0001134  62.8034   9.0614 15.67487594  1308,6744.231,91.867,366.861,365.331,0.0
